[{"OBJECT_NAME":"SRMSAT","OBJECT_ID":"2011-058D","EPOCH":"2026-03-06T20:41:54.525696","MEAN_MOTION":14.11546449,"ECCENTRICITY":0.0011841,"INCLINATION":19.9729,"RA_OF_ASC_NODE":318.8168,"ARG_OF_PERICENTER":158.0266,"MEAN_ANOMALY":271.4446,"EPHEMERIS_TYPE":0,"CLASSIFICATION_TYPE":"U","NORAD_CAT_ID":37841,"ELEMENT_SET_NO":999,"REV_AT_EPOCH":74334,"BSTAR":0.00013114,"MEAN_MOTION_DOT":5.07e-6,"MEAN_MOTION_DDOT":0},{"OBJECT_NAME":"SUOMI NPP","OBJECT_ID":"2011-061A","EPOCH":"2026-03-07T03:14:49.779168","MEAN_MOTION":14.19542601,"ECCENTRICITY":4.07e-5,"INCLINATION":98.7868,"RA_OF_ASC_NODE":7.7583,"ARG_OF_PERICENTER":253.2273,"MEAN_ANOMALY":106.8858,"EPHEMERIS_TYPE":0,"CLASSIFICATION_TYPE":"U","NORAD_CAT_ID":37849,"ELEMENT_SET_NO":999,"REV_AT_EPOCH":74396,"BSTAR":7.6504e-5,"MEAN_MOTION_DOT":1.17e-6,"MEAN_MOTION_DDOT":0},{"OBJECT_NAME":"YAOGAN-12","OBJECT_ID":"2011-066B","EPOCH":"2026-03-07T03:57:56.615904","MEAN_MOTION":15.25370091,"ECCENTRICITY":0.0008842,"INCLINATION":97.1284,"RA_OF_ASC_NODE":109.5519,"ARG_OF_PERICENTER":220.2244,"MEAN_ANOMALY":139.8341,"EPHEMERIS_TYPE":0,"CLASSIFICATION_TYPE":"U","NORAD_CAT_ID":37875,"ELEMENT_SET_NO":999,"REV_AT_EPOCH":79648,"BSTAR":0.00011707,"MEAN_MOTION_DOT":2.888e-5,"MEAN_MOTION_DDOT":0},{"OBJECT_NAME":"ZIYUAN 3-01 (ZY 3-01)","OBJECT_ID":"2012-001A","EPOCH":"2026-03-07T04:31:47.424576","MEAN_MOTION":16.00834877,"ECCENTRICITY":0.0002853,"INCLINATION":97.1563,"RA_OF_ASC_NODE":140.9691,"ARG_OF_PERICENTER":234.7201,"MEAN_ANOMALY":125.3811,"EPHEMERIS_TYPE":0,"CLASSIFICATION_TYPE":"U","NORAD_CAT_ID":38046,"ELEMENT_SET_NO":999,"REV_AT_EPOCH":78830,"BSTAR":0.0010284,"MEAN_MOTION_DOT":0.00545159,"MEAN_MOTION_DDOT":0.00013415},{"OBJECT_NAME":"BEIDOU-2 M4","OBJECT_ID":"2012-018B","EPOCH":"2026-03-06T00:36:00.489888","MEAN_MOTION":1.86229543,"ECCENTRICITY":0.001263,"INCLINATION":55.7456,"RA_OF_ASC_NODE":307.576,"ARG_OF_PERICENTER":286.484,"MEAN_ANOMALY":73.4334,"EPHEMERIS_TYPE":0,"CLASSIFICATION_TYPE":"U","NORAD_CAT_ID":38251,"ELEMENT_SET_NO":999,"REV_AT_EPOCH":9402,"BSTAR":0,"MEAN_MOTION_DOT":-6.9e-7,"MEAN_MOTION_DDOT":0},{"OBJECT_NAME":"ARIRANG-3 (KOMPSAT-3)","OBJECT_ID":"2012-025B","EPOCH":"2026-03-07T03:16:06.098016","MEAN_MOTION":14.62097985,"ECCENTRICITY":0.0006755,"INCLINATION":98.106,"RA_OF_ASC_NODE":25.4314,"ARG_OF_PERICENTER":77.1853,"MEAN_ANOMALY":283.0103,"EPHEMERIS_TYPE":0,"CLASSIFICATION_TYPE":"U","NORAD_CAT_ID":38338,"ELEMENT_SET_NO":999,"REV_AT_EPOCH":73643,"BSTAR":0.00016019,"MEAN_MOTION_DOT":7.59e-6,"MEAN_MOTION_DDOT":0},{"OBJECT_NAME":"HORYU-2","OBJECT_ID":"2012-025D","EPOCH":"2026-03-06T22:41:36.266496","MEAN_MOTION":14.90333673,"ECCENTRICITY":0.0008885,"INCLINATION":98.2006,"RA_OF_ASC_NODE":194.8483,"ARG_OF_PERICENTER":152.1863,"MEAN_ANOMALY":207.983,"EPHEMERIS_TYPE":0,"CLASSIFICATION_TYPE":"U","NORAD_CAT_ID":38340,"ELEMENT_SET_NO":999,"REV_AT_EPOCH":73349,"BSTAR":0.00051228,"MEAN_MOTION_DOT":4.926e-5,"MEAN_MOTION_DDOT":0},{"OBJECT_NAME":"CSSWE","OBJECT_ID":"2012-048D","EPOCH":"2026-03-07T04:45:13.789728","MEAN_MOTION":15.38935128,"ECCENTRICITY":0.006801,"INCLINATION":64.6615,"RA_OF_ASC_NODE":77.5957,"ARG_OF_PERICENTER":203.7555,"MEAN_ANOMALY":156.0438,"EPHEMERIS_TYPE":0,"CLASSIFICATION_TYPE":"U","NORAD_CAT_ID":38761,"ELEMENT_SET_NO":999,"REV_AT_EPOCH":10067,"BSTAR":0.00072347,"MEAN_MOTION_DOT":0.00030249,"MEAN_MOTION_DDOT":0},{"OBJECT_NAME":"CP5","OBJECT_ID":"2012-048F","EPOCH":"2026-03-07T04:33:56.780928","MEAN_MOTION":15.25033201,"ECCENTRICITY":0.0097888,"INCLINATION":64.6451,"RA_OF_ASC_NODE":129.0086,"ARG_OF_PERICENTER":206.9048,"MEAN_ANOMALY":152.6987,"EPHEMERIS_TYPE":0,"CLASSIFICATION_TYPE":"U","NORAD_CAT_ID":38763,"ELEMENT_SET_NO":999,"REV_AT_EPOCH":10119,"BSTAR":0.00062541,"MEAN_MOTION_DOT":0.00017825,"MEAN_MOTION_DDOT":0},{"OBJECT_NAME":"METOP-B","OBJECT_ID":"2012-049A","EPOCH":"2026-03-07T02:55:51.641472","MEAN_MOTION":14.21443608,"ECCENTRICITY":0.0001185,"INCLINATION":98.6647,"RA_OF_ASC_NODE":119.5956,"ARG_OF_PERICENTER":280.0234,"MEAN_ANOMALY":80.0809,"EPHEMERIS_TYPE":0,"CLASSIFICATION_TYPE":"U","NORAD_CAT_ID":38771,"ELEMENT_SET_NO":999,"REV_AT_EPOCH":69876,"BSTAR":7.6748e-5,"MEAN_MOTION_DOT":1.24e-6,"MEAN_MOTION_DDOT":0},{"OBJECT_NAME":"SJ-9A","OBJECT_ID":"2012-056A","EPOCH":"2026-03-07T02:32:20.331168","MEAN_MOTION":14.85215901,"ECCENTRICITY":0.0024362,"INCLINATION":97.6609,"RA_OF_ASC_NODE":41.8305,"ARG_OF_PERICENTER":231.4493,"MEAN_ANOMALY":128.454,"EPHEMERIS_TYPE":0,"CLASSIFICATION_TYPE":"U","NORAD_CAT_ID":38860,"ELEMENT_SET_NO":999,"REV_AT_EPOCH":68443,"BSTAR":0.00020314,"MEAN_MOTION_DOT":1.698e-5,"MEAN_MOTION_DDOT":0},{"OBJECT_NAME":"COSMOS 2484 (RODNIK-S 6)","OBJECT_ID":"2013-001C","EPOCH":"2026-03-07T03:50:53.364768","MEAN_MOTION":12.42936039,"ECCENTRICITY":0.0025586,"INCLINATION":82.4986,"RA_OF_ASC_NODE":285.3481,"ARG_OF_PERICENTER":256.4207,"MEAN_ANOMALY":103.4023,"EPHEMERIS_TYPE":0,"CLASSIFICATION_TYPE":"U","NORAD_CAT_ID":39059,"ELEMENT_SET_NO":999,"REV_AT_EPOCH":59588,"BSTAR":-0.00039954,"MEAN_MOTION_DOT":-4.6e-7,"MEAN_MOTION_DDOT":0},{"OBJECT_NAME":"SARAL","OBJECT_ID":"2013-009A","EPOCH":"2026-03-07T03:46:04.844064","MEAN_MOTION":14.32827414,"ECCENTRICITY":0.0001332,"INCLINATION":98.5553,"RA_OF_ASC_NODE":254.0048,"ARG_OF_PERICENTER":188.4956,"MEAN_ANOMALY":171.6206,"EPHEMERIS_TYPE":0,"CLASSIFICATION_TYPE":"U","NORAD_CAT_ID":39086,"ELEMENT_SET_NO":999,"REV_AT_EPOCH":68099,"BSTAR":7.0093e-5,"MEAN_MOTION_DOT":1.47e-6,"MEAN_MOTION_DDOT":0},{"OBJECT_NAME":"AAUSAT 3","OBJECT_ID":"2013-009B","EPOCH":"2026-03-06T09:41:09.968640","MEAN_MOTION":14.39791541,"ECCENTRICITY":0.00119197,"INCLINATION":98.3684,"RA_OF_ASC_NODE":251.5418,"ARG_OF_PERICENTER":156.4752,"MEAN_ANOMALY":203.6984,"EPHEMERIS_TYPE":0,"CLASSIFICATION_TYPE":"U","NORAD_CAT_ID":39087,"ELEMENT_SET_NO":999,"REV_AT_EPOCH":68238,"BSTAR":0.00037574304,"MEAN_MOTION_DOT":1.137e-5,"MEAN_MOTION_DDOT":0},{"OBJECT_NAME":"STRAND-1","OBJECT_ID":"2013-009E","EPOCH":"2026-03-06T23:43:03.292320","MEAN_MOTION":14.370918,"ECCENTRICITY":0.0008858,"INCLINATION":98.3885,"RA_OF_ASC_NODE":248.7472,"ARG_OF_PERICENTER":169.5759,"MEAN_ANOMALY":190.5613,"EPHEMERIS_TYPE":0,"CLASSIFICATION_TYPE":"U","NORAD_CAT_ID":39090,"ELEMENT_SET_NO":999,"REV_AT_EPOCH":68238,"BSTAR":0.00016441,"MEAN_MOTION_DOT":4.46e-6,"MEAN_MOTION_DDOT":0},{"OBJECT_NAME":"BRITE-AUSTRIA","OBJECT_ID":"2013-009F","EPOCH":"2026-03-07T00:39:24.884640","MEAN_MOTION":14.36494154,"ECCENTRICITY":0.001021,"INCLINATION":98.3952,"RA_OF_ASC_NODE":248.0015,"ARG_OF_PERICENTER":178.9457,"MEAN_ANOMALY":181.1753,"EPHEMERIS_TYPE":0,"CLASSIFICATION_TYPE":"U","NORAD_CAT_ID":39091,"ELEMENT_SET_NO":999,"REV_AT_EPOCH":68238,"BSTAR":0.00011483,"MEAN_MOTION_DOT":2.94e-6,"MEAN_MOTION_DDOT":0},{"OBJECT_NAME":"UNIBRITE","OBJECT_ID":"2013-009G","EPOCH":"2026-03-07T00:43:53.346720","MEAN_MOTION":14.36365263,"ECCENTRICITY":0.0009238,"INCLINATION":98.3991,"RA_OF_ASC_NODE":248.0902,"ARG_OF_PERICENTER":174.6209,"MEAN_ANOMALY":185.5078,"EPHEMERIS_TYPE":0,"CLASSIFICATION_TYPE":"U","NORAD_CAT_ID":39092,"ELEMENT_SET_NO":999,"REV_AT_EPOCH":68232,"BSTAR":0.00011202,"MEAN_MOTION_DOT":2.85e-6,"MEAN_MOTION_DDOT":0}]
