SRMSAT                  
1 37841U 11058D   26065.86243664  .00000507  00000+0  13114-3 0  9990
2 37841  19.9729 318.8168 0011841 158.0266 271.4446 14.11546449743348
SUOMI NPP               
1 37849U 11061A   26066.13529837  .00000117  00000+0  76504-4 0  9992
2 37849  98.7868   7.7583 0000407 253.2273 106.8858 14.19542601743962
YAOGAN-12               
1 37875U 11066B   26066.16523861  .00002888  00000+0  11707-3 0  9990
2 37875  97.1284 109.5519 0008842 220.2244 139.8341 15.25370091796487
ZIYUAN 3-01 (ZY 3-01)   
1 38046U 12001A   26066.18874334  .00545159  13415-3  10284-2 0  9996
2 38046  97.1563 140.9691 0002853 234.7201 125.3811 16.00834877788302
BEIDOU-2 M4             
1 38251U 12018B   26065.02500567 -.00000069  00000+0  00000+0 0  9999
2 38251  55.7456 307.5760 0012630 286.4840  73.4334  1.86229543 94024
ARIRANG-3 (KOMPSAT-3)   
1 38338U 12025B   26066.13618169  .00000759  00000+0  16019-3 0  9990
2 38338  98.1060  25.4314 0006755  77.1853 283.0103 14.62097985736435
HORYU-2                 
1 38340U 12025D   26065.94555864  .00004926  00000+0  51228-3 0  9994
2 38340  98.2006 194.8483 0008885 152.1863 207.9830 14.90333673733491
CSSWE                   
1 38761U 12048D   26066.19807627  .00030249  00000+0  72347-3 0  9993
2 38761  64.6615  77.5957 0068010 203.7555 156.0438 15.38935128100673
CP5                     
1 38763U 12048F   26066.19024052  .00017825  00000+0  62541-3 0  9998
2 38763  64.6451 129.0086 0097888 206.9048 152.6987 15.25033201101192
METOP-B                 
1 38771U 12049A   26066.12212548  .00000124  00000+0  76748-4 0  9999
2 38771  98.6647 119.5956 0001185 280.0234  80.0809 14.21443608698762
SJ-9A                   
1 38860U 12056A   26066.10579087  .00001698  00000+0  20314-3 0  9992
2 38860  97.6609  41.8305 0024362 231.4493 128.4540 14.85215901684433
COSMOS 2484 (RODNIK-S 6)
1 39059U 13001C   26066.16033987 -.00000046  00000+0 -39954-3 0  9992
2 39059  82.4986 285.3481 0025586 256.4207 103.4023 12.42936039595885
SARAL                   
1 39086U 13009A   26066.15700051  .00000147  00000+0  70093-4 0  9992
2 39086  98.5553 254.0048 0001332 188.4956 171.6206 14.32827414680997
AAUSAT 3                
1 39087U 13009B   26065.40358760  .00001137  00000+0  37574-3 0  9992
2 39087  98.3684 251.5418 0011919 156.4752 203.6984 14.39791541682387
STRAND-1                
1 39090U 13009E   26065.98823255  .00000446  00000+0  16441-3 0  9997
2 39090  98.3885 248.7472 0008858 169.5759 190.5613 14.37091800682384
BRITE-AUSTRIA           
1 39091U 13009F   26066.02737135  .00000294  00000+0  11483-3 0  9997
2 39091  98.3952 248.0015 0010210 178.9457 181.1753 14.36494154682389
UNIBRITE                
1 39092U 13009G   26066.03047855  .00000285  00000+0  11202-3 0  9991
2 39092  98.3991 248.0902 0009238 174.6209 185.5078 14.36365263682324
